[{"OBJECT_NAME":"BRITE-CA1 (TORONTO)","OBJECT_ID":"2014-033L","EPOCH":"2026-03-09T21:37:14.244384","MEAN_MOTION":14.72464239,"ECCENTRICITY":0.00779067,"INCLINATION":97.9564,"RA_OF_ASC_NODE":199.7641,"ARG_OF_PERICENTER":234.2245,"MEAN_ANOMALY":125.1703,"EPHEMERIS_TYPE":0,"CLASSIFICATION_TYPE":"U","NORAD_CAT_ID":40020,"ELEMENT_SET_NO":999,"REV_AT_EPOCH":62760,"BSTAR":0.00026709929,"MEAN_MOTION_DOT":1.723e-5,"MEAN_MOTION_DDOT":0},{"OBJECT_NAME":"DMSP 5D-2 F11 DEB","OBJECT_ID":"1991-082AG","EPOCH":"2026-03-08T12:45:54.154656","MEAN_MOTION":14.85447171,"ECCENTRICITY":0.00252551,"INCLINATION":98.7479,"RA_OF_ASC_NODE":173.9606,"ARG_OF_PERICENTER":164.1191,"MEAN_ANOMALY":196.0819,"EPHEMERIS_TYPE":0,"CLASSIFICATION_TYPE":"U","NORAD_CAT_ID":28319,"ELEMENT_SET_NO":999,"REV_AT_EPOCH":13730,"BSTAR":0.0070605851,"MEAN_MOTION_DOT":0.00061687,"MEAN_MOTION_DDOT":0}]
